LEMUR-2-ALISIA          
1 62706U 25009DB  26167.73611669  .00005865  00000+0  44306-3 0  9991
2 62706  97.6956 249.9090 0001967 191.4316 168.6864 15.02764457100096
LEMUR-2-ROUNDTRIPPER    
1 62711U 25009DG  26168.29338161  .00006819  00000+0  50042-3 0  9996
2 62711  97.7257 250.9723 0005375 130.2402 229.9295 15.03794198 77645
LEMUR-2-MYNAMEISJEFF    
1 62712U 25009DH  26168.15871031  .00006319  00000+0  46411-3 0  9990
2 62712  97.7304 251.2189 0003580 151.3935 208.7488 15.03798285 77628
LEMUR-2-LEIA-PHILIP     
1 63246U 25052AN  26168.60431297  .00000652  00000+0  61186-4 0  9998
2 63246  97.6839  60.5485 0002600 208.5655 151.5425 14.97320289 68734
LEMUR-2-LIA-MARTIN      
1 63248U 25052AQ  26168.60923622  .00002806  00000+0  24378-3 0  9992
2 63248  97.6893  61.0291 0002933 156.3429 203.7929 14.97806214 68742
LEMUR-2-DELOITTE-1      
1 63259U 25052BB  26168.51886946  .00003787  00000+0  32889-3 0  9996
2 63259  97.6921  61.2684 0003419  96.4459 263.7152 14.97606899 68742
LEMUR-2-EMERSONROSE     
1 63261U 25052BD  26168.29346707  .00002727  00000+0  22948-3 0  9998
2 63261  97.6884  61.6057 0001752  68.0465 292.0944 14.99079589 68758
LEMUR-2-MARACHE-FRAN    
1 63262U 25052BE  26168.60223989  .00004114  00000+0  33459-3 0  9991
2 63262  97.6940  62.2277 0005346  21.3677 338.7769 15.00105457 68821
LEMUR-2-THEFALCONER     
1 63264U 25052BG  26168.61211493  .00002324  00000+0  20490-3 0  9993
2 63264  97.6859  60.9808 0002595  32.2033 327.9347 14.97390796 68758
LEMUR-2-UNTITLED-SC     
1 63351U 25061A   26168.55150419  .00003441  00000+0  19544-3 0  9992
2 63351  97.5635 143.9105 0016959 263.1461  96.7840 15.13478282 67649
LEMUR-2-ESPERANZA       
1 63352U 25061B   26168.46250569  .00003084  00000+0  17516-3 0  9990
2 63352  97.5644 143.9159 0016490 262.7680  97.1676 15.13572861 67636
LEMUR-2-KREMPEL-BRO2    
1 63353U 25061C   26168.48940324  .00003389  00000+0  18971-3 0  9992
2 63353  97.5690 144.4761 0017522 254.3944 105.5353 15.14007853 67653
LEMUR-2-THERMORAPTOR    
1 63354U 25061D   26168.60363191  .00003470  00000+0  19376-3 0  9999
2 63354  97.5697 144.6655 0017203 252.6757 107.2592 15.14089419 67678
LEMUR-2-NEUROSPICY      
1 63355U 25061E   26168.57527341  .00002940  00000+0  16433-3 0  9997
2 63355  97.5624 144.2631 0015031 256.6555 103.3001 15.14203641 67673
LEMUR-2-TILLINFINITY    
1 63356U 25061F   26168.47827191  .00003809  00000+0  20825-3 0  9998
2 63356  97.5607 144.4573 0016386 243.8467 116.1080 15.14789899 67680
LEMUR-2-KREMPEL-BRO1    
1 63357U 25061G   26168.45177913  .00002839  00000+0  15695-3 0  9998
2 63357  97.5610 144.3472 0016976 245.4775 114.4687 15.14594749 67678
LEMUR-2-LANGER2SPACE    
1 63358U 25061H   26168.47833857  .00003657  00000+0  20298-3 0  9991
2 63358  97.5614 144.1874 0014962 255.2164 104.7410 15.14291464 67664
LEMUR-2-BALTO           
1 63395U 25052BH  26168.52022910  .00004879  00000+0  39594-3 0  9994
2 63395  97.6897  62.1246 0006909  56.9292 303.2594 15.00090169 68812
LEMUR-2-KRISH           
1 64561U 25135AK  26167.87372187  .00004747  00000+0  42605-3 0  9994
2 64561  97.7754 282.7517 0001766  99.8626 260.2794 14.96207333 53876
LEMUR-2-HUBBLE-4        
1 64565U 25135AP  26168.06936850  .00001482  00000+0  14733-3 0  9997
2 64565  97.7699 281.9767 0000964 308.5326  51.5807 14.93197861 53857
LEMUR-2-SEJONG-2        
1 64586U 25135BL  26168.57234833  .00003176  00000+0  28326-3 0  9993
2 64586  97.7688 283.5904 0003807 337.1820  22.9231 14.96698272 54001
LEMUR-2-HUBBLE-5        
1 64840U 25135BT  26168.55926520  .00000930  00000+0  92292-4 0  9994
2 64840  97.7719 283.0952 0005058 352.6695   7.4450 14.94136762 53963
LEMUR-2-KARENDARRELL    
1 64841U 25135BU  26168.31828843  .00005965  00000+0  48255-3 0  9990
2 64841  97.7684 284.5256 0009688 201.5473 158.5344 15.00111435 54034
LEMUR-2-LUCILLE-ROSE    
1 65403U 25135BV  26168.29199290  .00004812  00000+0  38975-3 0  9997
2 65403  97.7770 284.5194 0011269 282.5666  77.4297 15.00154719 48656
LEMUR-2-AFFIE-WAUWIE    
1 66295U 25248C   26167.13988088  .00013448  00000+0  50637-3 0  9999
2 66295  45.3895 120.6606 0007520  77.2231 282.9498 15.27115158 34433
LEMUR-2-DEANANDMAEVE    
1 66678U 25276N   26168.44636269  .00004885  00000+0  23164-3 0  9991
2 66678  97.4210 241.9176 0005694  13.8580 346.2811 15.19735426 30457
LEMUR-2-STAS-GORBUK     
1 66686U 25276W   26168.13163648  .00004325  00000+0  20761-3 0  9991
2 66686  97.4247 241.6633 0005087  16.0067 344.1327 15.19381149 30405
LEMUR-2-TEODOR          
1 66768U 25276DG  26168.44441053  .00004358  00000+0  19934-3 0  9991
2 66768  97.4152 242.2073 0002149 116.5925 243.5531 15.21052231 30488
LEMUR-2-LAILA           
1 66776U 25276DQ  26168.15518329  .00004890  00000+0  22188-3 0  9995
2 66776  97.4175 242.0432 0002226 135.7815 224.3599 15.21271363 30442
